OBJECT_NAME,OBJECT_ID,EPOCH,MEAN_MOTION,ECCENTRICITY,INCLINATION,RA_OF_ASC_NODE,ARG_OF_PERICENTER,MEAN_ANOMALY,EPHEMERIS_TYPE,CLASSIFICATION_TYPE,NORAD_CAT_ID,ELEMENT_SET_NO,REV_AT_EPOCH,BSTAR,MEAN_MOTION_DOT,MEAN_MOTION_DDOT
STARLINK-37607,2026-133G,2026-06-27T06:00:02.000160,15.80860976,.00007055,53.1593,271.5309,73.9754,164.2159,0,U,69514,999,348,.23906644E-3,.46714E-3,0
STARLINK-37232,2026-133H,2026-06-27T06:00:02.000160,15.80819878,.00011925,53.1593,271.4853,108.8770,151.3683,0,U,69515,999,348,.92678871E-3,.185749E-2,0
STARLINK-37323,2026-133J,2026-06-27T06:00:02.000160,15.80819834,.00012808,53.1597,271.4784,91.6687,171.7516,0,U,69516,999,348,.7916543E-3,.15805E-2,0
STARLINK-37357,2026-133K,2026-06-27T06:00:02.000160,15.81081516,.00007719,53.1595,271.4514,99.6590,176.8051,0,U,69517,999,348,-.21878715E-2,-.416339E-2,0
STARLINK-37408,2026-133L,2026-06-27T06:00:02.000160,15.80850442,.00011822,53.1594,271.4364,67.0511,216.4559,0,U,69518,999,348,.40359865E-3,.79612E-3,0
STARLINK-37570,2026-133M,2026-06-27T06:00:02.000160,15.80856805,.00007835,53.1596,271.3757,88.1112,224.5565,0,U,69519,999,348,.34844673E-3,.68569E-3,0
STARLINK-37510,2026-133N,2026-06-27T06:00:02.000160,15.80850376,.00010297,53.1595,271.4101,107.1909,188.9880,0,U,69520,999,348,.37947599E-3,.74769E-3,0
STARLINK-37586,2026-133P,2026-06-27T06:00:02.000160,15.81938321,.00006961,53.1595,271.2990,82.7271,266.9271,0,U,69521,999,348,-.55795714E-2,-.1028237E-1,0
STARLINK-37379,2026-133Q,2026-06-27T06:00:02.000160,15.80823918,.00007246,53.1599,271.3072,102.0611,243.6034,0,U,69522,999,353,.1060106E-2,.213298E-2,0
STARLINK-37429,2026-133R,2026-06-27T06:00:02.000160,15.81006779,.00010943,53.1598,271.2872,66.2405,288.9094,0,U,69523,999,353,-.16643141E-2,-.319313E-2,0
STARLINK-37352,2026-133S,2026-06-27T06:00:02.000160,15.80871678,.00005908,53.1597,271.2555,108.9180,261.6271,0,U,69524,999,353,.10987991E-3,.2104E-3,0
STARLINK-37490,2026-133T,2026-06-27T06:00:02.000160,15.80901987,.00007684,53.1583,271.1586,112.4908,304.5582,0,U,69525,999,353,-.24880828E-3,-.49588E-3,0
STARLINK-37438,2026-133U,2026-06-27T06:00:02.000160,15.80815438,.00011516,53.1595,271.2291,96.0945,287.3290,0,U,69526,999,353,.79962515E-3,.159646E-2,0
STARLINK-37484,2026-133V,2026-06-27T06:00:02.000160,15.81087909,.00006496,53.1582,271.1429,74.2435,350.2746,0,U,69527,999,353,-.16557798E-2,-.318864E-2,0
STARLINK-37523,2026-133W,2026-06-27T06:00:02.000160,15.80867968,.00011666,53.1586,271.1416,74.6324,350.6543,0,U,69528,999,353,.13719002E-3,.26454E-3,0
STARLINK-37369,2026-133X,2026-06-27T06:00:02.000160,15.80755608,.00002704,53.1581,271.1167,82.8420,354.0436,0,U,69529,999,353,.14292214E-2,.289494E-2,0
STARLINK-37670,2026-133Y,2026-06-27T06:00:02.000160,15.80958668,.00013185,53.1580,271.0735,91.5899,6.4540,0,U,69530,999,353,-.52103024E-3,-.102727E-2,0
STARLINK-37897,2026-133Z,2026-06-27T06:00:02.000160,15.81441061,.00009299,53.1578,271.0399,62.4065,51.3857,0,U,69531,999,348,-.43291985E-2,-.80096E-2,0
STARLINK-37933,2026-133AA,2026-06-27T06:00:02.000160,15.82391974,.00012358,53.1575,270.9936,51.2693,84.6334,0,U,69532,999,348,-.95393685E-2,-.1781963E-1,0
STARLINK-37890,2026-133AB,2026-06-27T06:00:02.000160,15.83895417,.00012533,53.1564,270.9458,86.4858,72.3561,0,U,69533,999,348,-.10918383E-1,-.2131697E-1,0
STARLINK-37407,2026-133AC,2026-06-27T06:00:02.000160,15.84099413,.0001155,53.1559,270.9035,91.4690,87.2598,0,U,69534,999,353,-.10904373E-1,-.214716E-1,0
STARLINK-37888,2026-133AD,2026-06-27T06:00:02.000160,15.86568401,.00011052,53.1554,270.8487,87.2661,117.8901,0,U,69535,999,348,-.88051041E-2,-.1982862E-1,0
STARLINK-37889,2026-133AE,2026-06-27T06:00:02.000160,15.80860423,.00010703,53.1602,271.3444,79.4940,249.4413,0,U,69536,999,348,.12402033E-3,.23832E-3,0
2026-134A,2026-134A,2026-06-27T06:23:07.495872,15.09301905,.0014572,97.7017,248.4073,233.5284,126.4603,0,U,69538,999,183,.37381353E-3,.5908E-4,0
2026-134B,2026-134B,2026-06-27T06:21:19.088928,15.09458435,.00146726,97.6991,248.4054,236.1755,123.8077,0,U,69539,999,182,.36626486E-3,.5812E-4,0
2026-134C,2026-134C,2026-06-27T06:20:57.541632,15.09490319,.00140979,97.6998,248.4066,237.5013,122.4854,0,U,69540,999,182,.37198799E-3,.5908E-4,0
2026-134D,2026-134D,2026-06-27T06:20:17.801088,15.09547486,.0015166,97.7037,248.4126,237.2208,122.7560,0,U,69541,999,182,.36920629E-3,.5875E-4,0
2026-134E,2026-134E,2026-06-27T06:20:02.560992,15.09569734,.00148888,97.7056,248.4156,237.9507,122.0276,0,U,69542,999,182,.37516625E-3,.5974E-4,0
2026-134F,2026-134F,2026-06-27T06:19:30.881568,15.09615495,.00141664,97.7009,248.4095,239.6920,120.2908,0,U,69543,999,182,.36740964E-3,.5855E-4,0
