STARLINK-37607          
1 69514U 26133G   26178.25002315  .00046714  00000+0  23907-3 0  9997
2 69514  53.1593 271.5309 0000705  73.9754 164.2159 15.80860976  3480
STARLINK-37232          
1 69515U 26133H   26178.25002315  .00185749  00000+0  92679-3 0  9992
2 69515  53.1593 271.4853 0001192 108.8770 151.3683 15.80819878  3485
STARLINK-37323          
1 69516U 26133J   26178.25002315  .00158050  00000+0  79165-3 0  9993
2 69516  53.1597 271.4784 0001280  91.6687 171.7516 15.80819834  3480
STARLINK-37357          
1 69517U 26133K   26178.25002315 -.00416339  00000+0 -21879-2 0  9991
2 69517  53.1595 271.4514 0000771  99.6590 176.8051 15.81081516  3484
STARLINK-37408          
1 69518U 26133L   26178.25002315  .00079612  00000+0  40360-3 0  9996
2 69518  53.1594 271.4364 0001182  67.0511 216.4559 15.80850442  3481
STARLINK-37570          
1 69519U 26133M   26178.25002315  .00068569  00000+0  34845-3 0  9997
2 69519  53.1596 271.3757 0000783  88.1112 224.5565 15.80856805  3482
STARLINK-37510          
1 69520U 26133N   26178.25002315  .00074769  00000+0  37948-3 0  9995
2 69520  53.1595 271.4101 0001029 107.1909 188.9880 15.80850376  3487
STARLINK-37586          
1 69521U 26133P   26178.25002315 -.01028237  00000+0 -55796-2 0  9998
2 69521  53.1595 271.2990 0000696  82.7271 266.9271 15.81938321  3480
STARLINK-37379          
1 69522U 26133Q   26178.25002315  .00213298  00000+0  10601-2 0  9995
2 69522  53.1599 271.3072 0000724 102.0611 243.6034 15.80823918  3532
STARLINK-37429          
1 69523U 26133R   26178.25002315 -.00319313  00000+0 -16643-2 0  9995
2 69523  53.1598 271.2872 0001094  66.2405 288.9094 15.81006779  3539
STARLINK-37352          
1 69524U 26133S   26178.25002315  .00021040  00000+0  10988-3 0  9998
2 69524  53.1597 271.2555 0000590 108.9180 261.6271 15.80871678  3533
STARLINK-37490          
1 69525U 26133T   26178.25002315 -.00049588  00000+0 -24881-3 0  9995
2 69525  53.1583 271.1586 0000768 112.4908 304.5582 15.80901987  3536
STARLINK-37438          
1 69526U 26133U   26178.25002315  .00159646  00000+0  79963-3 0  9992
2 69526  53.1595 271.2291 0001151  96.0945 287.3290 15.80815438  3538
STARLINK-37484          
1 69527U 26133V   26178.25002315 -.00318864  00000+0 -16558-2 0  9994
2 69527  53.1582 271.1429 0000649  74.2435 350.2746 15.81087909  3531
STARLINK-37523          
1 69528U 26133W   26178.25002315  .00026454  00000+0  13719-3 0  9991
2 69528  53.1586 271.1416 0001166  74.6324 350.6543 15.80867968  3537
STARLINK-37369          
1 69529U 26133X   26178.25002315  .00289494  00000+0  14292-2 0  9993
2 69529  53.1581 271.1167 0000270  82.8420 354.0436 15.80755608  3535
STARLINK-37670          
1 69530U 26133Y   26178.25002315 -.00102727  00000+0 -52103-3 0  9994
2 69530  53.1580 271.0735 0001318  91.5899   6.4540 15.80958668  3532
STARLINK-37897          
1 69531U 26133Z   26178.25002315 -.00800960  00000+0 -43292-2 0  9997
2 69531  53.1578 271.0399 0000929  62.4065  51.3857 15.81441061  3484
STARLINK-37933          
1 69532U 26133AA  26178.25002315 -.01781963  00000+0 -95394-2 0  9990
2 69532  53.1575 270.9936 0001235  51.2693  84.6334 15.82391974  3488
STARLINK-37890          
1 69533U 26133AB  26178.25002315 -.02131697  00000+0 -10918-1 0  9993
2 69533  53.1564 270.9458 0001253  86.4858  72.3561 15.83895417  3487
STARLINK-37407          
1 69534U 26133AC  26178.25002315 -.02147160  00000+0 -10904-1 0  9991
2 69534  53.1559 270.9035 0001155  91.4690  87.2598 15.84099413  3538
STARLINK-37888          
1 69535U 26133AD  26178.25002315 -.01982862  00000+0 -88051-2 0  9996
2 69535  53.1554 270.8487 0001105  87.2661 117.8901 15.86568401  3482
STARLINK-37889          
1 69536U 26133AE  26178.25002315  .00023832  00000+0  12402-3 0  9995
2 69536  53.1602 271.3444 0001070  79.4940 249.4413 15.80860423  3483
2026-134A               
1 69538U 26134A   26178.26605898  .00005908  00000+0  37381-3 0  9991
2 69538  97.7017 248.4073 0014572 233.5284 126.4603 15.09301905  1835
2026-134B               
1 69539U 26134B   26178.26480427  .00005812  00000+0  36626-3 0  9996
2 69539  97.6991 248.4054 0014672 236.1755 123.8077 15.09458435  1824
2026-134C               
1 69540U 26134C   26178.26455488  .00005908  00000+0  37199-3 0  9999
2 69540  97.6998 248.4066 0014097 237.5013 122.4854 15.09490319  1824
2026-134D               
1 69541U 26134D   26178.26409492  .00005875  00000+0  36921-3 0  9999
2 69541  97.7037 248.4126 0015166 237.2208 122.7560 15.09547486  1823
2026-134E               
1 69542U 26134E   26178.26391853  .00005974  00000+0  37517-3 0  9993
2 69542  97.7056 248.4156 0014888 237.9507 122.0276 15.09569734  1824
2026-134F               
1 69543U 26134F   26178.26355187  .00005855  00000+0  36741-3 0  9990
2 69543  97.7009 248.4095 0014166 239.6920 120.2908 15.09615495  1820
